0 COSMOS 1879
1 18338U 87074E   13281.20215390  .00000019  00000-0  42704-4 0  3126
2 18338 082.5752 018.1870 0006141 316.7685 053.0699 12.64911775204378
0 COSMOS 1879
1 18338U 87074E   13283.51050635  .00000004  00000-0 -34997-4 0  3132
2 18338 082.5754 016.7060 0006095 310.6114 125.4760 12.64911871204665
0 COSMOS 1879
1 18338U 87074E   13285.74556199  .00000019  00000-0  44928-4 0  3146
2 18338 082.5755 015.2722 0006042 304.6734 224.0602 12.64911687204945
0 COSMOS 1879
1 18338U 87074E   13287.79123962  .00000031  00000-0  10979-3 0  3154
2 18338 082.5755 013.9601 0006056 299.1887 180.2538 12.64911527205202
0 COSMOS 1879
1 18338U 87074E   13289.92810707  .00000042  00000-0  16903-3 0  3167
2 18338 082.5750 012.5895 0006063 293.5415 191.6511 12.64911616205475
0 COSMOS 1879
1 18338U 87074E   13292.20669947  .00000031  00000-0  11243-3 0  3171
2 18338 082.5745 011.1277 0006063 287.4670 128.5229 12.64911881205764
0 COSMOS 1879
1 18338U 87074E   13294.42315323  .00000020  00000-0  49063-4 0  3184
2 18338 082.5743 009.7057 0006054 281.5655 142.4064 12.64912182206048
